[{"OBJECT_NAME":"HAWK-11C","OBJECT_ID":"2024-247E","EPOCH":"2026-03-09T12:17:35.407968","MEAN_MOTION":15.2884802,"ECCENTRICITY":0.00059001,"INCLINATION":45.0045,"RA_OF_ASC_NODE":114.8762,"ARG_OF_PERICENTER":329.704,"MEAN_ANOMALY":30.3502,"EPHEMERIS_TYPE":0,"CLASSIFICATION_TYPE":"U","NORAD_CAT_ID":62381,"ELEMENT_SET_NO":999,"REV_AT_EPOCH":6774,"BSTAR":0.00033290115,"MEAN_MOTION_DOT":9.223e-5,"MEAN_MOTION_DDOT":0},{"OBJECT_NAME":"STARLINK-36450","OBJECT_ID":"2026-002N","EPOCH":"2026-03-09T10:05:21.811776","MEAN_MOTION":15.27591291,"ECCENTRICITY":8.244e-5,"INCLINATION":43.0057,"RA_OF_ASC_NODE":327.1425,"ARG_OF_PERICENTER":300.9814,"MEAN_ANOMALY":59.0957,"EPHEMERIS_TYPE":0,"CLASSIFICATION_TYPE":"U","NORAD_CAT_ID":67317,"ELEMENT_SET_NO":999,"REV_AT_EPOCH":1119,"BSTAR":0.0011516158,"MEAN_MOTION_DOT":0.00031574,"MEAN_MOTION_DDOT":0}]
